{
  "type": "FeatureCollection",
  "features": [
    {
      "type": "Feature",
      "properties": {
        "norad_id": 34459,
        "name": "COSMOS 2251 DEB",
        "group": "cosmos-2251-debris",
        "lat": 27.259026247750665,
        "lon": 81.64191905821626,
        "alt_km": 1027.7571360488182,
        "timestamp": "2025-12-03T10:52:57.850651+00:00",
        "meta_object_name": "COSMOS 2251 DEB",
        "meta_object_id": "1993-036TC",
        "meta_epoch": "2025-12-03T01:35:20.208768",
        "meta_mean_motion": 14.00468538,
        "meta_eccentricity": 0.0191865,
        "meta_inclination": 74.0791,
        "meta_ra_of_asc_node": 270.7677,
        "meta_arg_of_pericenter": 342.7417,
        "meta_mean_anomaly": 16.725,
        "meta_ephemeris_type": 0,
        "meta_classification_type": "U",
        "meta_norad_cat_id": 34459,
        "meta_element_set_no": 999,
        "meta_rev_at_epoch": 85576,
        "meta_bstar": 0.00082492,
        "meta_mean_motion_dot": 1.411e-05,
        "meta_mean_motion_ddot": 0,
        "tle_line1": "1 34459U 93036TC  25337.06620612  .00001411  00000+0  82492-3 0  9993",
        "tle_line2": "2 34459  74.0791 270.7677 0191865 342.7417  16.7250 14.00468538855760"
      },
      "geometry": {
        "type": "Point",
        "coordinates": [
          81.64191905821626,
          27.259026247750665
        ]
      }
    },
    {
      "type": "Feature",
      "properties": {
        "norad_id": 34464,
        "name": "COSMOS 2251 DEB",
        "group": "cosmos-2251-debris",
        "lat": 54.158856659459914,
        "lon": 121.39911588249305,
        "alt_km": 495.93934045499554,
        "timestamp": "2025-12-03T10:52:57.850661+00:00",
        "meta_object_name": "COSMOS 2251 DEB",
        "meta_object_id": "1993-036TH",
        "meta_epoch": "2025-12-02T18:53:06.245376",
        "meta_mean_motion": 15.24799264,
        "meta_eccentricity": 0.0017438,
        "meta_inclination": 73.9897,
        "meta_ra_of_asc_node": 99.3863,
        "meta_arg_of_pericenter": 269.1995,
        "meta_mean_anomaly": 90.7207,
        "meta_ephemeris_type": 0,
        "meta_classification_type": "U",
        "meta_norad_cat_id": 34464,
        "meta_element_set_no": 999,
        "meta_rev_at_epoch": 89688,
        "meta_bstar": 0.0035854,
        "meta_mean_motion_dot": 0.00090401,
        "meta_mean_motion_ddot": 0,
        "tle_line1": "1 34464U 93036TH  25336.78687784  .00090401  00000+0  35854-2 0  9996",
        "tle_line2": "2 34464  73.9897  99.3863 0017438 269.1995  90.7207 15.24799264896881"
      },
      "geometry": {
        "type": "Point",
        "coordinates": [
          121.39911588249305,
          54.158856659459914
        ]
      }
    },
    {
      "type": "Feature",
      "properties": {
        "norad_id": 34468,
        "name": "COSMOS 2251 DEB",
        "group": "cosmos-2251-debris",
        "lat": 20.84825217147876,
        "lon": 140.86972623222468,
        "alt_km": 742.5621369710834,
        "timestamp": "2025-12-03T10:52:57.850671+00:00",
        "meta_object_name": "COSMOS 2251 DEB",
        "meta_object_id": "1993-036TM",
        "meta_epoch": "2025-12-03T04:08:53.782944",
        "meta_mean_motion": 14.47583437,
        "meta_eccentricity": 0.007626,
        "meta_inclination": 74.0114,
        "meta_ra_of_asc_node": 135.1266,
        "meta_arg_of_pericenter": 281.9713,
        "meta_mean_anomaly": 77.2904,
        "meta_ephemeris_type": 0,
        "meta_classification_type": "U",
        "meta_norad_cat_id": 34468,
        "meta_element_set_no": 999,
        "meta_rev_at_epoch": 88323,
        "meta_bstar": 0.00040152,
        "meta_mean_motion_dot": 1.504e-05,
        "meta_mean_motion_ddot": 0,
        "tle_line1": "1 34468U 93036TM  25337.17284471  .00001504  00000+0  40152-3 0  9994",
        "tle_line2": "2 34468  74.0114 135.1266 0076260 281.9713  77.2904 14.47583437883239"
      },
      "geometry": {
        "type": "Point",
        "coordinates": [
          140.86972623222468,
          20.84825217147876
        ]
      }
    },
    {
      "type": "Feature",
      "properties": {
        "norad_id": 34472,
        "name": "COSMOS 2251 DEB",
        "group": "cosmos-2251-debris",
        "lat": 68.80506681605532,
        "lon": -113.94944394204097,
        "alt_km": 1179.2019410130497,
        "timestamp": "2025-12-03T10:52:57.850682+00:00",
        "meta_object_name": "COSMOS 2251 DEB",
        "meta_object_id": "1993-036TR",
        "meta_epoch": "2025-11-30T08:45:33.274080",
        "meta_mean_motion": 13.70299802,
        "meta_eccentricity": 0.03272305,
        "meta_inclination": 74.0853,
        "meta_ra_of_asc_node": 118.499,
        "meta_arg_of_pericenter": 252.162,
        "meta_mean_anomaly": 104.3557,
        "meta_ephemeris_type": 0,
        "meta_classification_type": "U",
        "meta_norad_cat_id": 34472,
        "meta_element_set_no": 999,
        "meta_rev_at_epoch": 83557,
        "meta_bstar": 0.0011470938,
        "meta_mean_motion_dot": 1.453e-05,
        "meta_mean_motion_ddot": 0,
        "tle_line1": "1 34472U 93036TR  25334.36496845  .00001453  00000+0  11471-2 0  9991",
        "tle_line2": "2 34472  74.0853 118.4990 0327230 252.1620 104.3557 13.70299802835570"
      },
      "geometry": {
        "type": "Point",
        "coordinates": [
          -113.94944394204097,
          68.80506681605532
        ]
      }
    },
    {
      "type": "Feature",
      "properties": {
        "norad_id": 34474,
        "name": "COSMOS 2251 DEB",
        "group": "cosmos-2251-debris",
        "lat": 57.78820864115642,
        "lon": 135.44838890855274,
        "alt_km": 791.5872119588612,
        "timestamp": "2025-12-03T10:52:57.850693+00:00",
        "meta_object_name": "COSMOS 2251 DEB",
        "meta_object_id": "1993-036TT",
        "meta_epoch": "2025-12-03T02:03:54.402912",
        "meta_mean_motion": 14.06315884,
        "meta_eccentricity": 0.0197743,
        "meta_inclination": 74.0784,
        "meta_ra_of_asc_node": 343.0303,
        "meta_arg_of_pericenter": 59.377,
        "meta_mean_anomaly": 357.6781,
        "meta_ephemeris_type": 0,
        "meta_classification_type": "U",
        "meta_norad_cat_id": 34474,
        "meta_element_set_no": 999,
        "meta_rev_at_epoch": 85373,
        "meta_bstar": 0.001864,
        "meta_mean_motion_dot": 3.647e-05,
        "meta_mean_motion_ddot": 0,
        "tle_line1": "1 34474U 93036TT  25337.08604633  .00003647  00000+0  18640-2 0  9993",
        "tle_line2": "2 34474  74.0784 343.0303 0197743  59.3770 357.6781 14.06315884853735"
      },
      "geometry": {
        "type": "Point",
        "coordinates": [
          135.44838890855274,
          57.78820864115642
        ]
      }
    },
    {
      "type": "Feature",
      "properties": {
        "norad_id": 34476,
        "name": "COSMOS 2251 DEB",
        "group": "cosmos-2251-debris",
        "lat": -0.8232067202284192,
        "lon": -81.60873026511284,
        "alt_km": 1133.2619966607208,
        "timestamp": "2025-12-03T10:52:57.850704+00:00",
        "meta_object_name": "COSMOS 2251 DEB",
        "meta_object_id": "1993-036TV",
        "meta_epoch": "2025-12-02T07:55:37.516512",
        "meta_mean_motion": 13.81874197,
        "meta_eccentricity": 0.03188749,
        "meta_inclination": 74.0058,
        "meta_ra_of_asc_node": 100.0469,
        "meta_arg_of_pericenter": 321.9324,
        "meta_mean_anomaly": 35.9644,
        "meta_ephemeris_type": 0,
        "meta_classification_type": "U",
        "meta_norad_cat_id": 34476,
        "meta_element_set_no": 999,
        "meta_rev_at_epoch": 83494,
        "meta_bstar": 0.003237471,
        "meta_mean_motion_dot": 5.092e-05,
        "meta_mean_motion_ddot": 0,
        "tle_line1": "1 34476U 93036TV  25336.33029533  .00005092  00000+0  32375-2 0  9999",
        "tle_line2": "2 34476  74.0058 100.0469 0318874 321.9324  35.9644 13.81874197834943"
      },
      "geometry": {
        "type": "Point",
        "coordinates": [
          -81.60873026511284,
          -0.8232067202284192
        ]
      }
    },
    {
      "type": "Feature",
      "properties": {
        "norad_id": 34477,
        "name": "COSMOS 2251 DEB",
        "group": "cosmos-2251-debris",
        "lat": 72.3362360714621,
        "lon": -157.26994639099559,
        "alt_km": 750.8369540866943,
        "timestamp": "2025-12-03T10:52:57.850714+00:00",
        "meta_object_name": "COSMOS 2251 DEB",
        "meta_object_id": "1993-036TW",
        "meta_epoch": "2025-12-03T02:26:50.774784",
        "meta_mean_motion": 14.5674038,
        "meta_eccentricity": 0.0076897,
        "meta_inclination": 73.9786,
        "meta_ra_of_asc_node": 87.8643,
        "meta_arg_of_pericenter": 276.7658,
        "meta_mean_anomaly": 138.3031,
        "meta_ephemeris_type": 0,
        "meta_classification_type": "U",
        "meta_norad_cat_id": 34477,
        "meta_element_set_no": 999,
        "meta_rev_at_epoch": 88485,
        "meta_bstar": 0.0012264,
        "meta_mean_motion_dot": 5.681e-05,
        "meta_mean_motion_ddot": 0,
        "tle_line1": "1 34477U 93036TW  25337.10197656  .00005681  00000+0  12264-2 0  9997",
        "tle_line2": "2 34477  73.9786  87.8643 0076897 276.7658 138.3031 14.56740380884851"
      },
      "geometry": {
        "type": "Point",
        "coordinates": [
          -157.26994639099559,
          72.3362360714621
        ]
      }
    }
  ]
}